TEVEL2-4                
1 63213U 25052D   26032.66062584  .00018136  00000+0  63913-3 0  9992
2 63213  97.4080 289.2070 0001376 181.8929 178.2306 15.29339121 49363
TEVEL2-5                
1 63214U 25052E   26032.66897258  .00017612  00000+0  62269-3 0  9998
2 63214  97.4067 289.1948 0001440 180.7373 179.3865 15.29237734 49364
TEVEL2-6                
1 63215U 25052F   26032.93954225  .00017109  00000+0  60563-3 0  9993
2 63215  97.4077 289.4510 0001490 184.0554 176.0674 15.29204519 49409
TEVEL2-1                
1 63217U 25052H   26032.66668286  .00017522  00000+0  62756-3 0  9999
2 63217  97.4055 288.9459 0001017 217.0599 143.0571 15.28815684 49358
TEVEL2-3                
1 63218U 25052J   26032.66502570  .00017621  00000+0  63051-3 0  9992
2 63218  97.4056 288.9531 0001044 218.9108 141.2057 15.28845313 49358
TEVEL2-2                
1 63219U 25052K   26032.66738201  .00017578  00000+0  62951-3 0  9994
2 63219  97.4056 288.9475 0001013 223.4665 136.6495 15.28817857 49357
TEVEL2-9                
1 63237U 25052AD  26032.68217475  .00015418  00000+0  58019-3 0  9992
2 63237  97.4117 288.5921 0004611 264.0662  96.0051 15.27205862 49311
TEVEL2-7                
1 63238U 25052AE  26032.70172000  .00015938  00000+0  60305-3 0  9998
2 63238  97.4121 288.5730 0004730 264.4650  95.6050 15.27018012 49311
TEVEL2-8                
1 63239U 25052AF  26032.70819653  .00016134  00000+0  61082-3 0  9993
2 63239  97.4114 288.5621 0004740 264.9808  95.0890 15.26994600 49315
HADES-ICM               
1 63492U 25052BN  26032.65931047  .00079262  00000+0  14975-2 0  9999
2 63492  97.4032 292.0390 0003415 240.6690 119.4219 15.48147057 49558
INNOSAT 16 (RS92S7)     
1 64878U 25155C   26032.92956397  .00007140  00000+0  30121-3 0  9995
2 64878  97.4401   0.8016 0009155 309.4173  50.6252 15.23569000 60065
GEOSCAN 6 (RS92S6)      
1 64879U 25155D   26032.94666621  .00011379  00000+0  43215-3 0  9993
2 64879  97.4401   1.4075 0006161 306.9737  53.0937 15.26967630 60106
GEOSCAN 1 (RS92S1)      
1 64880U 25155E   26032.92603861  .00013199  00000+0  49537-3 0  9995
2 64880  97.4401   1.4401 0006096 307.7881  52.2805 15.27322944 60106
239ALFEROV (RS61S)      
1 64881U 25155F   26032.91845830  .00016339  00000+0  58993-3 0  9994
2 64881  97.4408   1.6286 0005639 309.3743  50.6997 15.28554242 60118
GEOSCAN 2 (RS92S2)      
1 64890U 25155Q   26032.94552418  .00012083  00000+0  44966-3 0  9991
2 64890  97.4399   1.5544 0005125 290.6735  69.3954 15.27631041 60118
GEOSCAN 5 (RS92S5)      
1 64891U 25155R   26032.93648864  .00015247  00000+0  54510-3 0  9993
2 64891  97.4400   1.7303 0004699 321.8980  38.1927 15.28898688 60129
