[{"OBJECT_NAME":"TEVEL2-4","OBJECT_ID":"2025-052D","EPOCH":"2026-02-01T15:51:18.072576","MEAN_MOTION":15.29339121,"ECCENTRICITY":0.00013763,"INCLINATION":97.408,"RA_OF_ASC_NODE":289.207,"ARG_OF_PERICENTER":181.8929,"MEAN_ANOMALY":178.2306,"EPHEMERIS_TYPE":0,"CLASSIFICATION_TYPE":"U","NORAD_CAT_ID":63213,"ELEMENT_SET_NO":999,"REV_AT_EPOCH":4936,"BSTAR":0.00063912829,"MEAN_MOTION_DOT":0.00018136,"MEAN_MOTION_DDOT":0},{"OBJECT_NAME":"TEVEL2-5","OBJECT_ID":"2025-052E","EPOCH":"2026-02-01T16:03:19.230912","MEAN_MOTION":15.29237734,"ECCENTRICITY":0.00014405,"INCLINATION":97.4067,"RA_OF_ASC_NODE":289.1948,"ARG_OF_PERICENTER":180.7373,"MEAN_ANOMALY":179.3865,"EPHEMERIS_TYPE":0,"CLASSIFICATION_TYPE":"U","NORAD_CAT_ID":63214,"ELEMENT_SET_NO":999,"REV_AT_EPOCH":4936,"BSTAR":0.00062269265,"MEAN_MOTION_DOT":0.00017612,"MEAN_MOTION_DDOT":0},{"OBJECT_NAME":"TEVEL2-6","OBJECT_ID":"2025-052F","EPOCH":"2026-02-01T22:32:56.450400","MEAN_MOTION":15.29204519,"ECCENTRICITY":0.00014902,"INCLINATION":97.4077,"RA_OF_ASC_NODE":289.451,"ARG_OF_PERICENTER":184.0554,"MEAN_ANOMALY":176.0674,"EPHEMERIS_TYPE":0,"CLASSIFICATION_TYPE":"U","NORAD_CAT_ID":63215,"ELEMENT_SET_NO":999,"REV_AT_EPOCH":4940,"BSTAR":0.00060563444,"MEAN_MOTION_DOT":0.00017109,"MEAN_MOTION_DDOT":0},{"OBJECT_NAME":"TEVEL2-1","OBJECT_ID":"2025-052H","EPOCH":"2026-02-01T16:00:01.399104","MEAN_MOTION":15.28815684,"ECCENTRICITY":0.00010171,"INCLINATION":97.4055,"RA_OF_ASC_NODE":288.9459,"ARG_OF_PERICENTER":217.0599,"MEAN_ANOMALY":143.0571,"EPHEMERIS_TYPE":0,"CLASSIFICATION_TYPE":"U","NORAD_CAT_ID":63217,"ELEMENT_SET_NO":999,"REV_AT_EPOCH":4935,"BSTAR":0.00062755602,"MEAN_MOTION_DOT":0.00017522,"MEAN_MOTION_DDOT":0},{"OBJECT_NAME":"TEVEL2-3","OBJECT_ID":"2025-052J","EPOCH":"2026-02-01T15:57:38.220480","MEAN_MOTION":15.28845313,"ECCENTRICITY":0.00010442,"INCLINATION":97.4056,"RA_OF_ASC_NODE":288.9531,"ARG_OF_PERICENTER":218.9108,"MEAN_ANOMALY":141.2057,"EPHEMERIS_TYPE":0,"CLASSIFICATION_TYPE":"U","NORAD_CAT_ID":63218,"ELEMENT_SET_NO":999,"REV_AT_EPOCH":4935,"BSTAR":0.0006305081,"MEAN_MOTION_DOT":0.00017621,"MEAN_MOTION_DDOT":0},{"OBJECT_NAME":"TEVEL2-2","OBJECT_ID":"2025-052K","EPOCH":"2026-02-01T16:01:01.805664","MEAN_MOTION":15.28817857,"ECCENTRICITY":0.0001013,"INCLINATION":97.4056,"RA_OF_ASC_NODE":288.9475,"ARG_OF_PERICENTER":223.4665,"MEAN_ANOMALY":136.6495,"EPHEMERIS_TYPE":0,"CLASSIFICATION_TYPE":"U","NORAD_CAT_ID":63219,"ELEMENT_SET_NO":999,"REV_AT_EPOCH":4935,"BSTAR":0.00062950783,"MEAN_MOTION_DOT":0.00017578,"MEAN_MOTION_DDOT":0},{"OBJECT_NAME":"TEVEL2-9","OBJECT_ID":"2025-052AD","EPOCH":"2026-02-01T16:22:19.898400","MEAN_MOTION":15.27205862,"ECCENTRICITY":0.00046115,"INCLINATION":97.4117,"RA_OF_ASC_NODE":288.5921,"ARG_OF_PERICENTER":264.0662,"MEAN_ANOMALY":96.0051,"EPHEMERIS_TYPE":0,"CLASSIFICATION_TYPE":"U","NORAD_CAT_ID":63237,"ELEMENT_SET_NO":999,"REV_AT_EPOCH":4931,"BSTAR":0.00058019141,"MEAN_MOTION_DOT":0.00015418,"MEAN_MOTION_DDOT":0},{"OBJECT_NAME":"TEVEL2-7","OBJECT_ID":"2025-052AE","EPOCH":"2026-02-01T16:50:28.608000","MEAN_MOTION":15.27018012,"ECCENTRICITY":0.00047306,"INCLINATION":97.4121,"RA_OF_ASC_NODE":288.573,"ARG_OF_PERICENTER":264.465,"MEAN_ANOMALY":95.605,"EPHEMERIS_TYPE":0,"CLASSIFICATION_TYPE":"U","NORAD_CAT_ID":63238,"ELEMENT_SET_NO":999,"REV_AT_EPOCH":4931,"BSTAR":0.00060304523,"MEAN_MOTION_DOT":0.00015938,"MEAN_MOTION_DDOT":0},{"OBJECT_NAME":"TEVEL2-8","OBJECT_ID":"2025-052AF","EPOCH":"2026-02-01T16:59:48.180192","MEAN_MOTION":15.269946,"ECCENTRICITY":0.00047403,"INCLINATION":97.4114,"RA_OF_ASC_NODE":288.5621,"ARG_OF_PERICENTER":264.9808,"MEAN_ANOMALY":95.089,"EPHEMERIS_TYPE":0,"CLASSIFICATION_TYPE":"U","NORAD_CAT_ID":63239,"ELEMENT_SET_NO":999,"REV_AT_EPOCH":4931,"BSTAR":0.00061081864,"MEAN_MOTION_DOT":0.00016134,"MEAN_MOTION_DDOT":0},{"OBJECT_NAME":"HADES-ICM","OBJECT_ID":"2025-052BN","EPOCH":"2026-02-01T15:49:24.424608","MEAN_MOTION":15.48147057,"ECCENTRICITY":0.00034156,"INCLINATION":97.4032,"RA_OF_ASC_NODE":292.039,"ARG_OF_PERICENTER":240.669,"MEAN_ANOMALY":119.4219,"EPHEMERIS_TYPE":0,"CLASSIFICATION_TYPE":"U","NORAD_CAT_ID":63492,"ELEMENT_SET_NO":999,"REV_AT_EPOCH":4955,"BSTAR":0.0014975156,"MEAN_MOTION_DOT":0.00079262,"MEAN_MOTION_DDOT":0},{"OBJECT_NAME":"INNOSAT 16 (RS92S7)","OBJECT_ID":"2025-155C","EPOCH":"2026-02-01T22:18:34.327008","MEAN_MOTION":15.23569,"ECCENTRICITY":0.00091557,"INCLINATION":97.4401,"RA_OF_ASC_NODE":0.8016,"ARG_OF_PERICENTER":309.4173,"MEAN_ANOMALY":50.6252,"EPHEMERIS_TYPE":0,"CLASSIFICATION_TYPE":"U","NORAD_CAT_ID":64878,"ELEMENT_SET_NO":999,"REV_AT_EPOCH":6006,"BSTAR":0.0003012103,"MEAN_MOTION_DOT":7.14e-5,"MEAN_MOTION_DDOT":0},{"OBJECT_NAME":"GEOSCAN 6 (RS92S6)","OBJECT_ID":"2025-155D","EPOCH":"2026-02-01T22:43:11.960544","MEAN_MOTION":15.2696763,"ECCENTRICITY":0.00061612,"INCLINATION":97.4401,"RA_OF_ASC_NODE":1.4075,"ARG_OF_PERICENTER":306.9737,"MEAN_ANOMALY":53.0937,"EPHEMERIS_TYPE":0,"CLASSIFICATION_TYPE":"U","NORAD_CAT_ID":64879,"ELEMENT_SET_NO":999,"REV_AT_EPOCH":6010,"BSTAR":0.00043214582,"MEAN_MOTION_DOT":0.00011379,"MEAN_MOTION_DDOT":0},{"OBJECT_NAME":"GEOSCAN 1 (RS92S1)","OBJECT_ID":"2025-155E","EPOCH":"2026-02-01T22:13:29.735904","MEAN_MOTION":15.27322944,"ECCENTRICITY":0.00060969,"INCLINATION":97.4401,"RA_OF_ASC_NODE":1.4401,"ARG_OF_PERICENTER":307.7881,"MEAN_ANOMALY":52.2805,"EPHEMERIS_TYPE":0,"CLASSIFICATION_TYPE":"U","NORAD_CAT_ID":64880,"ELEMENT_SET_NO":999,"REV_AT_EPOCH":6010,"BSTAR":0.00049537492,"MEAN_MOTION_DOT":0.00013199,"MEAN_MOTION_DDOT":0},{"OBJECT_NAME":"239ALFEROV (RS61S)","OBJECT_ID":"2025-155F","EPOCH":"2026-02-01T22:02:34.797120","MEAN_MOTION":15.28554242,"ECCENTRICITY":0.00056397,"INCLINATION":97.4408,"RA_OF_ASC_NODE":1.6286,"ARG_OF_PERICENTER":309.3743,"MEAN_ANOMALY":50.6997,"EPHEMERIS_TYPE":0,"CLASSIFICATION_TYPE":"U","NORAD_CAT_ID":64881,"ELEMENT_SET_NO":999,"REV_AT_EPOCH":6011,"BSTAR":0.00058993048,"MEAN_MOTION_DOT":0.00016339,"MEAN_MOTION_DDOT":0},{"OBJECT_NAME":"GEOSCAN 2 (RS92S2)","OBJECT_ID":"2025-155Q","EPOCH":"2026-02-01T22:41:33.289152","MEAN_MOTION":15.27631041,"ECCENTRICITY":0.00051251,"INCLINATION":97.4399,"RA_OF_ASC_NODE":1.5544,"ARG_OF_PERICENTER":290.6735,"MEAN_ANOMALY":69.3954,"EPHEMERIS_TYPE":0,"CLASSIFICATION_TYPE":"U","NORAD_CAT_ID":64890,"ELEMENT_SET_NO":999,"REV_AT_EPOCH":6011,"BSTAR":0.00044966031,"MEAN_MOTION_DOT":0.00012083,"MEAN_MOTION_DDOT":0},{"OBJECT_NAME":"GEOSCAN 5 (RS92S5)","OBJECT_ID":"2025-155R","EPOCH":"2026-02-01T22:28:32.618496","MEAN_MOTION":15.28898688,"ECCENTRICITY":0.00046999,"INCLINATION":97.44,"RA_OF_ASC_NODE":1.7303,"ARG_OF_PERICENTER":321.898,"MEAN_ANOMALY":38.1927,"EPHEMERIS_TYPE":0,"CLASSIFICATION_TYPE":"U","NORAD_CAT_ID":64891,"ELEMENT_SET_NO":999,"REV_AT_EPOCH":6012,"BSTAR":0.00054509614,"MEAN_MOTION_DOT":0.00015247,"MEAN_MOTION_DDOT":0}]
